[{"OBJECT_NAME":"STARLINK-30145","OBJECT_ID":"2023-113B","EPOCH":"2025-07-28T03:53:19.568256","MEAN_MOTION":15.02533498,"ECCENTRICITY":9.25e-5,"INCLINATION":43.0024,"RA_OF_ASC_NODE":157.5124,"ARG_OF_PERICENTER":278.9698,"MEAN_ANOMALY":81.1039,"EPHEMERIS_TYPE":0,"CLASSIFICATION_TYPE":"U","NORAD_CAT_ID":57496,"ELEMENT_SET_NO":999,"REV_AT_EPOCH":10977,"BSTAR":1.4076e-6,"MEAN_MOTION_DOT":-1.84e-6,"MEAN_MOTION_DDOT":0},{"OBJECT_NAME":"STARLINK-30226","OBJECT_ID":"2023-113C","EPOCH":"2025-07-27T23:01:20.529696","MEAN_MOTION":15.02537431,"ECCENTRICITY":0.0001002,"INCLINATION":43.0011,"RA_OF_ASC_NODE":158.5801,"ARG_OF_PERICENTER":301.227,"MEAN_ANOMALY":58.8474,"EPHEMERIS_TYPE":0,"CLASSIFICATION_TYPE":"U","NORAD_CAT_ID":57497,"ELEMENT_SET_NO":999,"REV_AT_EPOCH":10975,"BSTAR":5.5093e-5,"MEAN_MOTION_DOT":5.41e-6,"MEAN_MOTION_DDOT":0},{"OBJECT_NAME":"STARLINK-30203","OBJECT_ID":"2023-113D","EPOCH":"2025-07-27T21:11:14.093664","MEAN_MOTION":15.02534366,"ECCENTRICITY":9.3e-5,"INCLINATION":43.0024,"RA_OF_ASC_NODE":158.8599,"ARG_OF_PERICENTER":294.1541,"MEAN_ANOMALY":65.9204,"EPHEMERIS_TYPE":0,"CLASSIFICATION_TYPE":"U","NORAD_CAT_ID":57498,"ELEMENT_SET_NO":999,"REV_AT_EPOCH":10986,"BSTAR":7.694e-6,"MEAN_MOTION_DOT":-1.0e-6,"MEAN_MOTION_DDOT":0},{"OBJECT_NAME":"STARLINK-30169","OBJECT_ID":"2023-113E","EPOCH":"2025-07-28T04:17:44.932128","MEAN_MOTION":15.02541353,"ECCENTRICITY":8.37e-5,"INCLINATION":43.0032,"RA_OF_ASC_NODE":144.9191,"ARG_OF_PERICENTER":281.0552,"MEAN_ANOMALY":79.0196,"EPHEMERIS_TYPE":0,"CLASSIFICATION_TYPE":"U","NORAD_CAT_ID":57499,"ELEMENT_SET_NO":999,"REV_AT_EPOCH":10987,"BSTAR":4.5445e-5,"MEAN_MOTION_DOT":4.1e-6,"MEAN_MOTION_DDOT":0},{"OBJECT_NAME":"STARLINK-30164","OBJECT_ID":"2023-113F","EPOCH":"2025-07-28T04:55:29.361216","MEAN_MOTION":15.02534742,"ECCENTRICITY":5.42e-5,"INCLINATION":43.0021,"RA_OF_ASC_NODE":156.9736,"ARG_OF_PERICENTER":259.3852,"MEAN_ANOMALY":100.6929,"EPHEMERIS_TYPE":0,"CLASSIFICATION_TYPE":"U","NORAD_CAT_ID":57500,"ELEMENT_SET_NO":999,"REV_AT_EPOCH":10989,"BSTAR":5.0911e-5,"MEAN_MOTION_DOT":4.84e-6,"MEAN_MOTION_DDOT":0},{"OBJECT_NAME":"STARLINK-30072","OBJECT_ID":"2023-113G","EPOCH":"2025-07-28T04:45:54.241344","MEAN_MOTION":15.0254081,"ECCENTRICITY":7.78e-5,"INCLINATION":43.0015,"RA_OF_ASC_NODE":156.9176,"ARG_OF_PERICENTER":285.0938,"MEAN_ANOMALY":74.9818,"EPHEMERIS_TYPE":0,"CLASSIFICATION_TYPE":"U","NORAD_CAT_ID":57501,"ELEMENT_SET_NO":999,"REV_AT_EPOCH":10978,"BSTAR":-5.465e-6,"MEAN_MOTION_DOT":-2.77e-6,"MEAN_MOTION_DDOT":0},{"OBJECT_NAME":"STARLINK-30228","OBJECT_ID":"2023-113H","EPOCH":"2025-07-27T19:40:43.612608","MEAN_MOTION":15.22075499,"ECCENTRICITY":0.000216,"INCLINATION":42.9996,"RA_OF_ASC_NODE":138.8758,"ARG_OF_PERICENTER":218.6668,"MEAN_ANOMALY":141.4027,"EPHEMERIS_TYPE":0,"CLASSIFICATION_TYPE":"U","NORAD_CAT_ID":57502,"ELEMENT_SET_NO":999,"REV_AT_EPOCH":10996,"BSTAR":0.002388,"MEAN_MOTION_DOT":0.0005589,"MEAN_MOTION_DDOT":0},{"OBJECT_NAME":"STARLINK-30230","OBJECT_ID":"2023-113J","EPOCH":"2025-07-27T06:40:05.453760","MEAN_MOTION":15.02543387,"ECCENTRICITY":9.4e-5,"INCLINATION":43.0021,"RA_OF_ASC_NODE":162.0511,"ARG_OF_PERICENTER":262.1588,"MEAN_ANOMALY":97.9148,"EPHEMERIS_TYPE":0,"CLASSIFICATION_TYPE":"U","NORAD_CAT_ID":57503,"ELEMENT_SET_NO":999,"REV_AT_EPOCH":10964,"BSTAR":-0.000136,"MEAN_MOTION_DOT":-2.04e-5,"MEAN_MOTION_DDOT":0},{"OBJECT_NAME":"STARLINK-30213","OBJECT_ID":"2023-113K","EPOCH":"2025-07-27T14:19:43.056768","MEAN_MOTION":15.02535283,"ECCENTRICITY":9.48e-5,"INCLINATION":43.0016,"RA_OF_ASC_NODE":160.9926,"ARG_OF_PERICENTER":279.7866,"MEAN_ANOMALY":80.2869,"EPHEMERIS_TYPE":0,"CLASSIFICATION_TYPE":"U","NORAD_CAT_ID":57504,"ELEMENT_SET_NO":999,"REV_AT_EPOCH":10979,"BSTAR":4.0594e-5,"MEAN_MOTION_DOT":3.45e-6,"MEAN_MOTION_DDOT":0},{"OBJECT_NAME":"STARLINK-30227","OBJECT_ID":"2023-113L","EPOCH":"2025-07-27T20:04:38.313120","MEAN_MOTION":15.02536333,"ECCENTRICITY":9.16e-5,"INCLINATION":43.0027,"RA_OF_ASC_NODE":146.3496,"ARG_OF_PERICENTER":264.5029,"MEAN_ANOMALY":95.5709,"EPHEMERIS_TYPE":0,"CLASSIFICATION_TYPE":"U","NORAD_CAT_ID":57505,"ELEMENT_SET_NO":999,"REV_AT_EPOCH":10998,"BSTAR":9.3994e-5,"MEAN_MOTION_DOT":1.066e-5,"MEAN_MOTION_DDOT":0},{"OBJECT_NAME":"STARLINK-30212","OBJECT_ID":"2023-113M","EPOCH":"2025-07-27T06:16:16.842720","MEAN_MOTION":15.02536989,"ECCENTRICITY":9.49e-5,"INCLINATION":43.0024,"RA_OF_ASC_NODE":162.7812,"ARG_OF_PERICENTER":301.734,"MEAN_ANOMALY":58.3409,"EPHEMERIS_TYPE":0,"CLASSIFICATION_TYPE":"U","NORAD_CAT_ID":57506,"ELEMENT_SET_NO":999,"REV_AT_EPOCH":10958,"BSTAR":3.4237e-5,"MEAN_MOTION_DOT":2.59e-6,"MEAN_MOTION_DDOT":0},{"OBJECT_NAME":"STARLINK-30219","OBJECT_ID":"2023-113N","EPOCH":"2025-07-27T14:10:07.574016","MEAN_MOTION":15.02539689,"ECCENTRICITY":7.88e-5,"INCLINATION":43.0021,"RA_OF_ASC_NODE":160.9625,"ARG_OF_PERICENTER":305.8046,"MEAN_ANOMALY":54.2723,"EPHEMERIS_TYPE":0,"CLASSIFICATION_TYPE":"U","NORAD_CAT_ID":57507,"ELEMENT_SET_NO":999,"REV_AT_EPOCH":10979,"BSTAR":4.7218e-5,"MEAN_MOTION_DOT":4.34e-6,"MEAN_MOTION_DDOT":0},{"OBJECT_NAME":"STARLINK-30074","OBJECT_ID":"2023-113P","EPOCH":"2025-07-27T06:30:29.960640","MEAN_MOTION":15.02533932,"ECCENTRICITY":9.92e-5,"INCLINATION":43.0021,"RA_OF_ASC_NODE":162.0006,"ARG_OF_PERICENTER":272.2851,"MEAN_ANOMALY":87.7878,"EPHEMERIS_TYPE":0,"CLASSIFICATION_TYPE":"U","NORAD_CAT_ID":57508,"ELEMENT_SET_NO":999,"REV_AT_EPOCH":10954,"BSTAR":-2.5087e-6,"MEAN_MOTION_DOT":-2.37e-6,"MEAN_MOTION_DDOT":0},{"OBJECT_NAME":"STARLINK-30082","OBJECT_ID":"2023-113Q","EPOCH":"2025-07-27T21:49:35.381856","MEAN_MOTION":15.02536856,"ECCENTRICITY":0.000107,"INCLINATION":43.0024,"RA_OF_ASC_NODE":159.0563,"ARG_OF_PERICENTER":273.9976,"MEAN_ANOMALY":86.0744,"EPHEMERIS_TYPE":0,"CLASSIFICATION_TYPE":"U","NORAD_CAT_ID":57509,"ELEMENT_SET_NO":999,"REV_AT_EPOCH":10984,"BSTAR":1.7559e-5,"MEAN_MOTION_DOT":3.4e-7,"MEAN_MOTION_DDOT":0},{"OBJECT_NAME":"STARLINK-30153","OBJECT_ID":"2023-113R","EPOCH":"2025-07-27T21:44:47.738976","MEAN_MOTION":15.02518969,"ECCENTRICITY":0.0001024,"INCLINATION":43.002,"RA_OF_ASC_NODE":159.0415,"ARG_OF_PERICENTER":272.0806,"MEAN_ANOMALY":87.992,"EPHEMERIS_TYPE":0,"CLASSIFICATION_TYPE":"U","NORAD_CAT_ID":57510,"ELEMENT_SET_NO":999,"REV_AT_EPOCH":10973,"BSTAR":0.00010894,"MEAN_MOTION_DOT":1.268e-5,"MEAN_MOTION_DDOT":0},{"OBJECT_NAME":"STARLINK-30147","OBJECT_ID":"2023-113S","EPOCH":"2025-07-27T14:00:32.080896","MEAN_MOTION":15.02540384,"ECCENTRICITY":7.74e-5,"INCLINATION":43.0024,"RA_OF_ASC_NODE":160.9127,"ARG_OF_PERICENTER":302.0089,"MEAN_ANOMALY":58.0678,"EPHEMERIS_TYPE":0,"CLASSIFICATION_TYPE":"U","NORAD_CAT_ID":57511,"ELEMENT_SET_NO":999,"REV_AT_EPOCH":10979,"BSTAR":5.8009e-5,"MEAN_MOTION_DOT":5.8e-6,"MEAN_MOTION_DDOT":0},{"OBJECT_NAME":"STARLINK-30157","OBJECT_ID":"2023-113T","EPOCH":"2025-07-28T03:01:23.359584","MEAN_MOTION":15.02530606,"ECCENTRICITY":8.78e-5,"INCLINATION":43.0033,"RA_OF_ASC_NODE":131.5487,"ARG_OF_PERICENTER":263.6397,"MEAN_ANOMALY":96.4345,"EPHEMERIS_TYPE":0,"CLASSIFICATION_TYPE":"U","NORAD_CAT_ID":57512,"ELEMENT_SET_NO":999,"REV_AT_EPOCH":11018,"BSTAR":4.2597e-5,"MEAN_MOTION_DOT":3.72e-6,"MEAN_MOTION_DDOT":0}]
