STARLINK-30145          
1 57496U 23113B   25209.16203204 -.00000184  00000+0  14076-5 0  9993
2 57496  43.0024 157.5124 0000925 278.9698  81.1039 15.02533498109772
STARLINK-30226          
1 57497U 23113C   25208.95926539  .00000541  00000+0  55093-4 0  9992
2 57497  43.0011 158.5801 0001002 301.2270  58.8474 15.02537431109758
STARLINK-30203          
1 57498U 23113D   25208.88280201 -.00000100  00000+0  76940-5 0  9991
2 57498  43.0024 158.8599 0000930 294.1541  65.9204 15.02534366109866
STARLINK-30169          
1 57499U 23113E   25209.17899227  .00000410  00000+0  45445-4 0  9997
2 57499  43.0032 144.9191 0000837 281.0552  79.0196 15.02541353109874
STARLINK-30164          
1 57500U 23113F   25209.20520094  .00000484  00000+0  50911-4 0  9992
2 57500  43.0021 156.9736 0000542 259.3852 100.6929 15.02534742109898
STARLINK-30072          
1 57501U 23113G   25209.19854446 -.00000277  00000+0 -54650-5 0  9999
2 57501  43.0015 156.9176 0000778 285.0938  74.9818 15.02540810109783
STARLINK-30228          
1 57502U 23113H   25208.81994922  .00055890  00000+0  23880-2 0  9999
2 57502  42.9996 138.8758 0002160 218.6668 141.4027 15.22075499109964
STARLINK-30230          
1 57503U 23113J   25208.27784090 -.00002040  00000+0 -13600-3 0  9994
2 57503  43.0021 162.0511 0000940 262.1588  97.9148 15.02543387109649
STARLINK-30213          
1 57504U 23113K   25208.59702612  .00000345  00000+0  40594-4 0  9997
2 57504  43.0016 160.9926 0000948 279.7866  80.2869 15.02535283109799
STARLINK-30227          
1 57505U 23113L   25208.83655455  .00001066  00000+0  93994-4 0  9990
2 57505  43.0027 146.3496 0000916 264.5029  95.5709 15.02536333109980
STARLINK-30212          
1 57506U 23113M   25208.26130605  .00000259  00000+0  34237-4 0  9991
2 57506  43.0024 162.7812 0000949 301.7340  58.3409 15.02536989109585
STARLINK-30219          
1 57507U 23113N   25208.59036544  .00000434  00000+0  47218-4 0  9993
2 57507  43.0021 160.9625 0000788 305.8046  54.2723 15.02539689109791
STARLINK-30074          
1 57508U 23113P   25208.27118010 -.00000237  00000+0 -25087-5 0  9992
2 57508  43.0021 162.0006 0000992 272.2851  87.7878 15.02533932109546
STARLINK-30082          
1 57509U 23113Q   25208.90943729  .00000034  00000+0  17559-4 0  9993
2 57509  43.0024 159.0563 0001070 273.9976  86.0744 15.02536856109843
STARLINK-30153          
1 57510U 23113R   25208.90610809  .00001268  00000+0  10894-3 0  9999
2 57510  43.0020 159.0415 0001024 272.0806  87.9920 15.02518969109737
STARLINK-30147          
1 57511U 23113S   25208.58370464  .00000580  00000+0  58009-4 0  9991
2 57511  43.0024 160.9127 0000774 302.0089  58.0678 15.02540384109792
STARLINK-30157          
1 57512U 23113T   25209.12596481  .00000372  00000+0  42597-4 0  9996
2 57512  43.0033 131.5487 0000878 263.6397  96.4345 15.02530606110183
